LANDSAT 9               
1 49260U 21088A   23296.78082291  .00000663  00000+0  15730-3 0  9992
2 49260  98.2176   5.0543 0001114  91.5242 268.6084 14.57117000110117
